{
  "type": "FeatureCollection",
  "features": [
    {
      "type": "Feature",
      "properties": {
        "norad_id": 34680,
        "name": "COSMOS 2251 DEB",
        "group": "cosmos-2251-debris",
        "lat": 36.144249035803114,
        "lon": -51.14008958155145,
        "alt_km": 688.9017977382209,
        "timestamp": "2025-12-06T22:38:43.123961+00:00",
        "meta_object_name": "COSMOS 2251 DEB",
        "meta_object_id": "1993-036YA",
        "meta_epoch": "2025-12-06T10:37:40.709856",
        "meta_mean_motion": 14.60516338,
        "meta_eccentricity": 0.00069089,
        "meta_inclination": 74.0423,
        "meta_ra_of_asc_node": 141.8787,
        "meta_arg_of_pericenter": 236.4719,
        "meta_mean_anomaly": 154.0251,
        "meta_ephemeris_type": 0,
        "meta_classification_type": "U",
        "meta_norad_cat_id": 34680,
        "meta_element_set_no": 999,
        "meta_rev_at_epoch": 88236,
        "meta_bstar": 0.0020988404,
        "meta_mean_motion_dot": 0.00010176,
        "meta_mean_motion_ddot": 0,
        "tle_line1": "1 34680U 93036YA  25340.44283229  .00010176  00000+0  20988-2 0  9993",
        "tle_line2": "2 34680  74.0423 141.8787 0006908 236.4719 154.0251 14.60516338882366"
      },
      "geometry": {
        "type": "Point",
        "coordinates": [
          -51.14008958155145,
          36.144249035803114
        ]
      }
    },
    {
      "type": "Feature",
      "properties": {
        "norad_id": 34681,
        "name": "COSMOS 2251 DEB",
        "group": "cosmos-2251-debris",
        "lat": -71.58155228587539,
        "lon": -179.05247592165946,
        "alt_km": 629.6028221423785,
        "timestamp": "2025-12-06T22:38:43.123971+00:00",
        "meta_object_name": "COSMOS 2251 DEB",
        "meta_object_id": "1993-036YB",
        "meta_epoch": "2025-12-06T15:46:30.631008",
        "meta_mean_motion": 14.82983055,
        "meta_eccentricity": 0.00256841,
        "meta_inclination": 74.0635,
        "meta_ra_of_asc_node": 302.4155,
        "meta_arg_of_pericenter": 0.3138,
        "meta_mean_anomaly": 173.0091,
        "meta_ephemeris_type": 0,
        "meta_classification_type": "U",
        "meta_norad_cat_id": 34681,
        "meta_element_set_no": 999,
        "meta_rev_at_epoch": 89180,
        "meta_bstar": 0.0027298041,
        "meta_mean_motion_dot": 0.00022346,
        "meta_mean_motion_ddot": 0,
        "tle_line1": "1 34681U 93036YB  25340.65729897  .00022346  00000+0  27298-2 0  9996",
        "tle_line2": "2 34681  74.0635 302.4155 0025684   0.3138 173.0091 14.82983055891801"
      },
      "geometry": {
        "type": "Point",
        "coordinates": [
          -179.05247592165946,
          -71.58155228587539
        ]
      }
    },
    {
      "type": "Feature",
      "properties": {
        "norad_id": 34682,
        "name": "COSMOS 2251 DEB",
        "group": "cosmos-2251-debris",
        "lat": 19.019848000209596,
        "lon": -91.63505209120851,
        "alt_km": 691.6679134250398,
        "timestamp": "2025-12-06T22:38:43.123982+00:00",
        "meta_object_name": "COSMOS 2251 DEB",
        "meta_object_id": "1993-036YC",
        "meta_epoch": "2025-12-06T01:20:12.634656",
        "meta_mean_motion": 14.58815913,
        "meta_eccentricity": 0.00186662,
        "meta_inclination": 74.0399,
        "meta_ra_of_asc_node": 95.7163,
        "meta_arg_of_pericenter": 229.0805,
        "meta_mean_anomaly": 310.3215,
        "meta_ephemeris_type": 0,
        "meta_classification_type": "U",
        "meta_norad_cat_id": 34682,
        "meta_element_set_no": 999,
        "meta_rev_at_epoch": 88588,
        "meta_bstar": 0.0014911764,
        "meta_mean_motion_dot": 6.968e-05,
        "meta_mean_motion_ddot": 0,
        "tle_line1": "1 34682U 93036YC  25340.05570179  .00006968  00000+0  14912-2 0  9999",
        "tle_line2": "2 34682  74.0399  95.7163 0018666 229.0805 310.3215 14.58815913885888"
      },
      "geometry": {
        "type": "Point",
        "coordinates": [
          -91.63505209120851,
          19.019848000209596
        ]
      }
    },
    {
      "type": "Feature",
      "properties": {
        "norad_id": 34683,
        "name": "COSMOS 2251 DEB",
        "group": "cosmos-2251-debris",
        "lat": -16.244233122824138,
        "lon": -71.8025388379374,
        "alt_km": 671.367690579651,
        "timestamp": "2025-12-06T22:38:43.123992+00:00",
        "meta_object_name": "COSMOS 2251 DEB",
        "meta_object_id": "1993-036YD",
        "meta_epoch": "2025-12-06T08:46:20.127072",
        "meta_mean_motion": 14.64345358,
        "meta_eccentricity": 0.00186639,
        "meta_inclination": 74.0292,
        "meta_ra_of_asc_node": 104.5217,
        "meta_arg_of_pericenter": 219.6097,
        "meta_mean_anomaly": 171.2696,
        "meta_ephemeris_type": 0,
        "meta_classification_type": "U",
        "meta_norad_cat_id": 34683,
        "meta_element_set_no": 999,
        "meta_rev_at_epoch": 88255,
        "meta_bstar": 0.002560646,
        "meta_mean_motion_dot": 0.00013555,
        "meta_mean_motion_ddot": 0,
        "tle_line1": "1 34683U 93036YD  25340.36551073  .00013555  00000+0  25606-2 0  9998",
        "tle_line2": "2 34683  74.0292 104.5217 0018663 219.6097 171.2696 14.64345358882551"
      },
      "geometry": {
        "type": "Point",
        "coordinates": [
          -71.8025388379374,
          -16.244233122824138
        ]
      }
    },
    {
      "type": "Feature",
      "properties": {
        "norad_id": 34685,
        "name": "COSMOS 2251 DEB",
        "group": "cosmos-2251-debris",
        "lat": 45.094022447557336,
        "lon": -36.896584431126655,
        "alt_km": 703.9857665101936,
        "timestamp": "2025-12-06T22:38:43.124001+00:00",
        "meta_object_name": "COSMOS 2251 DEB",
        "meta_object_id": "1993-036YF",
        "meta_epoch": "2025-12-06T14:05:41.375616",
        "meta_mean_motion": 14.57421998,
        "meta_eccentricity": 0.00143688,
        "meta_inclination": 74.0284,
        "meta_ra_of_asc_node": 160.4792,
        "meta_arg_of_pericenter": 264.5823,
        "meta_mean_anomaly": 159.5269,
        "meta_ephemeris_type": 0,
        "meta_classification_type": "U",
        "meta_norad_cat_id": 34685,
        "meta_element_set_no": 999,
        "meta_rev_at_epoch": 88442,
        "meta_bstar": 0.0017005371,
        "meta_mean_motion_dot": 7.706e-05,
        "meta_mean_motion_ddot": 0,
        "tle_line1": "1 34685U 93036YF  25340.58728444  .00007706  00000+0  17005-2 0  9997",
        "tle_line2": "2 34685  74.0284 160.4792 0014368 264.5823 159.5269 14.57421998884427"
      },
      "geometry": {
        "type": "Point",
        "coordinates": [
          -36.896584431126655,
          45.094022447557336
        ]
      }
    },
    {
      "type": "Feature",
      "properties": {
        "norad_id": 34689,
        "name": "COSMOS 2251 DEB",
        "group": "cosmos-2251-debris",
        "lat": 3.0735684255662616,
        "lon": -125.64515091103175,
        "alt_km": 794.7017220990683,
        "timestamp": "2025-12-06T22:38:43.124012+00:00",
        "meta_object_name": "COSMOS 2251 DEB",
        "meta_object_id": "1993-036YK",
        "meta_epoch": "2025-12-01T04:52:05.077056",
        "meta_mean_motion": 14.04150485,
        "meta_eccentricity": 0.0229843,
        "meta_inclination": 74.0888,
        "meta_ra_of_asc_node": 243.4543,
        "meta_arg_of_pericenter": 314.8144,
        "meta_mean_anomaly": 197.2792,
        "meta_ephemeris_type": 0,
        "meta_classification_type": "U",
        "meta_norad_cat_id": 34689,
        "meta_element_set_no": 999,
        "meta_rev_at_epoch": 84179,
        "meta_bstar": 0.0056499,
        "meta_mean_motion_dot": 0.00011323,
        "meta_mean_motion_ddot": 0,
        "tle_line1": "1 34689U 93036YK  25335.20283654  .00011323  00000+0  56499-2 0  9993",
        "tle_line2": "2 34689  74.0888 243.4543 0229843 314.8144 197.2792 14.04150485841793"
      },
      "geometry": {
        "type": "Point",
        "coordinates": [
          -125.64515091103175,
          3.0735684255662616
        ]
      }
    },
    {
      "type": "Feature",
      "properties": {
        "norad_id": 34721,
        "name": "COSMOS 2251 DEB",
        "group": "cosmos-2251-debris",
        "lat": -6.241115861116783,
        "lon": 158.11377641307453,
        "alt_km": 904.2355990287697,
        "timestamp": "2025-12-06T22:38:43.124022+00:00",
        "meta_object_name": "COSMOS 2251 DEB",
        "meta_object_id": "1993-036YP",
        "meta_epoch": "2025-12-05T23:31:26.699232",
        "meta_mean_motion": 13.96799465,
        "meta_eccentricity": 0.02239253,
        "meta_inclination": 73.9235,
        "meta_ra_of_asc_node": 337.977,
        "meta_arg_of_pericenter": 278.1349,
        "meta_mean_anomaly": 108.3025,
        "meta_ephemeris_type": 0,
        "meta_classification_type": "U",
        "meta_norad_cat_id": 34721,
        "meta_element_set_no": 999,
        "meta_rev_at_epoch": 85055,
        "meta_bstar": 0.0028739518,
        "meta_mean_motion_dot": 4.911e-05,
        "meta_mean_motion_ddot": 0,
        "tle_line1": "1 34721U 93036YP  25339.98017013  .00004911  00000+0  28740-2 0  9996",
        "tle_line2": "2 34721  73.9235 337.9770 0223925 278.1349 108.3025 13.96799465850552"
      },
      "geometry": {
        "type": "Point",
        "coordinates": [
          158.11377641307453,
          -6.241115861116783
        ]
      }
    }
  ]
}